NORAD_CAT_ID,OBJECT_NAME,OBJECT_TYPE,EPOCH,MEAN_MOTION,ECCENTRICITY,INCLINATION,RA_OF_ASC_NODE,ARG_OF_PERICENTER,MEAN_ANOMALY,BSTAR,MEAN_MOTION_DOT,MEAN_MOTION_DDOT,TLE_LINE0,TLE_LINE1,TLE_LINE2,SEMIMAJOR_AXIS,PERIOD,APOGEE,PERIGEE,DECAYED
52997.0,STARLINK-4301,PAYLOAD,2023-02-04 15:34:36,15.11076082,0.0002524,53.2158,122.1805,111.3204,248.8059,0.0016885,0.000284,0.0,0 STARLINK-4301,1 52997U 22076M   23035.64903893  .00028400  00000-0  16885-2 0  9998,2 52997  53.2158 122.1805 0002524 111.3204 248.8059 15.11076082 32408,6911.054,95.296,534.663,531.175,0.0
52997.0,STARLINK-4301,PAYLOAD,2023-02-05 12:12:46,15.11126842,0.0002609,53.2168,118.3075,114.7063,245.4202,0.0015614,0.0002627,0.0,0 STARLINK-4301,1 52997U 22076M   23036.50886659  .00026270  00000-0  15614-2 0  9996,2 52997  53.2168 118.3075 0002609 114.7063 245.4202 15.11126842 33009,6910.899,95.293,534.567,530.961,0.0
52997.0,STARLINK-4301,PAYLOAD,2023-02-05 21:44:12,15.11150271,0.0002547,53.2165,116.5199,114.1695,245.9564,0.0015867,0.00026719,0.0,0 STARLINK-4301,1 52997U 22076M   23036.90570085  .00026719  00000-0  15867-2 0  9991,2 52997  53.2165 116.5199 0002547 114.1695 245.9564 15.11150271 32591,6910.828,95.292,534.453,530.933,0.0
52997.0,STARLINK-4301,PAYLOAD,2023-02-06 10:26:06,15.11190145,0.0002494,53.2162,114.1351,115.7064,244.4187,0.0020332,0.00034396,0.0,0 STARLINK-4301,1 52997U 22076M   23037.43480153  .00034396  00000-0  20332-2 0  9999,2 52997  53.2162 114.1351 0002494 115.7064 244.4187 15.11190145 33141,6910.706,95.289,534.295,530.848,0.0
52997.0,STARLINK-4301,PAYLOAD,2023-02-07 11:49:51,15.11280594,0.000235,53.2158,109.3676,114.3527,245.7711,0.0024998,0.00042513,0.0,0 STARLINK-4301,1 52997U 22076M   23038.49295931  .00042513  00000-0  24998-2 0  9996,2 52997  53.2158 109.3676 0002350 114.3527 245.7711 15.11280594 33305,6910.431,95.283,533.919,530.672,0.0
52997.0,STARLINK-4301,PAYLOAD,2023-02-08 08:27:51,15.11319289,0.000232,53.2159,105.4932,115.4758,244.6476,0.001213,0.00020435,0.0,0 STARLINK-4301,1 52997U 22076M   23039.35267447  .00020435  00000-0  12130-2 0  9997,2 52997  53.2159 105.4932 0002320 115.4758 244.6476 15.11319289 33437,6910.313,95.281,533.781,530.574,0.0
52997.0,STARLINK-4301,PAYLOAD,2023-02-08 11:38:18,15.1131941,0.0002386,53.2161,104.8983,113.2608,246.8637,0.0011019,0.00018531,0.0,0 STARLINK-4301,1 52997U 22076M   23039.48493846  .00018531  00000-0  11019-2 0  9994,2 52997  53.2161 104.8983 0002386 113.2608 246.8637 15.11319410 32989,6910.312,95.281,533.826,530.528,0.0
52997.0,STARLINK-4301,PAYLOAD,2023-02-09 11:26:43,15.11379896,0.0002389,53.2153,100.4271,118.2465,241.877,0.0018826,0.00031985,0.0,0 STARLINK-4301,1 52997U 22076M   23040.47688790  .00031985  00000-0  18826-2 0  9990,2 52997  53.2153 100.4271 0002389 118.2465 241.8770 15.11379896 33136,6910.128,95.277,533.644,530.342,0.0
52997.0,STARLINK-4301,PAYLOAD,2023-02-09 20:58:03,15.11403854,0.0002315,53.215,98.6386,116.6465,243.4766,0.0016299,0.00027653,0.0,0 STARLINK-4301,1 52997U 22076M   23040.87365608  .00027653  00000-0  16299-2 0  9993,2 52997  53.2150  98.6386 0002315 116.6465 243.4766 15.11403854 33662,6910.055,95.276,533.519,530.32,0.0
52997.0,STARLINK-4301,PAYLOAD,2023-02-10 03:18:57,15.11419556,0.0002538,53.2154,97.4489,111.5312,248.5952,0.0018697,0.00031798,0.0,0 STARLINK-4301,1 52997U 22076M   23041.13816680  .00031798  00000-0  18697-2 0  9993,2 52997  53.2154  97.4489 0002538 111.5312 248.5952 15.11419556 33231,6910.007,95.275,533.626,530.118,0.0
52997.0,STARLINK-4301,PAYLOAD,2023-02-10 09:39:51,15.11416361,0.0002286,53.2145,96.2544,118.096,242.0264,0.0013175,0.00022287,0.0,0 STARLINK-4301,1 52997U 22076M   23041.40267600  .00022287  00000-0  13175-2 0  9994,2 52997  53.2145  96.2544 0002286 118.0960 242.0264 15.11416361 33743,6910.017,95.275,533.461,530.302,0.0
52997.0,STARLINK-4301,PAYLOAD,2023-02-10 20:46:24,15.11441357,0.000225,53.2143,94.1675,118.8018,241.3201,0.0016961,0.00028823,0.0,0 STARLINK-4301,1 52997U 22076M   23041.86556073  .00028823  00000-0  16961-2 0  9997,2 52997  53.2143  94.1675 0002250 118.8018 241.3201 15.11441357 33348,6909.94,95.273,533.36,530.251,0.0
52997.0,STARLINK-4301,PAYLOAD,2023-02-11 20:34:39,15.11547515,0.0002222,53.2141,89.6961,118.1725,241.9493,0.0021977,0.00037592,0.0,0 STARLINK-4301,1 52997U 22076M   23042.85740609  .00037592  00000-0  21977-2 0  9993,2 52997  53.2141  89.6961 0002222 118.1725 241.9493 15.11547515 33960,6909.617,95.267,533.017,529.947,0.0
52997.0,STARLINK-4301,PAYLOAD,2023-02-12 12:26:47,15.1162311,0.0002202,53.2144,86.7157,114.8004,245.3218,0.0029102,0.00050068,0.0,0 STARLINK-4301,1 52997U 22076M   23043.51859967  .00050068  00000-0  29102-2 0  9996,2 52997  53.2144  86.7157 0002202 114.8004 245.3218 15.11623110 34060,6909.387,95.262,532.773,529.73,0.0
52997.0,STARLINK-4301,PAYLOAD,2023-02-13 09:04:28,15.11702704,0.0002292,53.215,82.8386,118.0639,242.0587,0.0027223,0.000469,0.0,0 STARLINK-4301,1 52997U 22076M   23044.37810937  .00046900  00000-0  27223-2 0  9997,2 52997  53.2150  82.8386 0002292 118.0639 242.0587 15.11702704 33729,6909.144,95.257,532.593,529.425,0.0
52997.0,STARLINK-4301,PAYLOAD,2023-02-14 02:31:42,15.11767853,0.0002331,53.2155,79.5591,118.6176,241.5052,0.0026462,0.00045655,0.0,0 STARLINK-4301,1 52997U 22076M   23045.10535266  .00045655  00000-0  26462-2 0  9998,2 52997  53.2155  79.5591 0002331 118.6176 241.5052 15.11767853 34303,6908.946,95.253,532.421,529.2,0.0
52997.0,STARLINK-4301,PAYLOAD,2023-02-14 08:52:30,15.11791811,0.0002333,53.2158,78.3668,118.4249,241.698,0.0027208,0.00046991,0.0,0 STARLINK-4301,1 52997U 22076M   23045.36979695  .00046991  00000-0  27208-2 0  9997,2 52997  53.2158  78.3668 0002333 118.4249 241.6980 15.11791811 33872,6908.873,95.251,532.349,529.126,0.0
52997.0,STARLINK-4301,PAYLOAD,2023-02-15 07:05:15,15.11867883,0.0002324,53.2164,74.1931,119.6854,240.4371,0.0025191,0.00043557,0.0,0 STARLINK-4301,1 52997U 22076M   23046.29532199  .00043557  00000-0  25191-2 0  9998,2 52997  53.2164  74.1931 0002324 119.6854 240.4371 15.11867883 34483,6908.641,95.246,532.111,528.9,0.0
52997.0,STARLINK-4301,PAYLOAD,2023-02-15 11:50:50,15.11884683,0.0002336,53.2166,73.2989,119.8508,240.2718,0.002539,0.00043926,0.0,0 STARLINK-4301,1 52997U 22076M   23046.49364263  .00043926  00000-0  25390-2 0  9996,2 52997  53.2166  73.2989 0002336 119.8508 240.2718 15.11884683 34041,6908.59,95.245,532.068,528.841,0.0
52997.0,STARLINK-4301,PAYLOAD,2023-02-15 18:11:36,15.11919963,0.0002352,53.2166,72.1063,120.7611,239.3614,0.0032084,0.00055733,0.0,0 STARLINK-4301,1 52997U 22076M   23046.75806485  .00055733  00000-0  32084-2 0  9999,2 52997  53.2166  72.1063 0002352 120.7611 239.3614 15.11919963 34084,6908.482,95.243,531.972,528.722,0.0
52997.0,STARLINK-4301,PAYLOAD,2023-02-16 08:28:19,15.11975722,0.0002248,53.2168,69.4221,122.5666,237.5545,0.0028336,0.00049219,0.0,0 STARLINK-4301,1 52997U 22076M   23047.35299823  .00049219  00000-0  28336-2 0  9995,2 52997  53.2168  69.4221 0002248 122.5666 237.5545 15.11975722 34645,6908.312,95.24,531.73,528.624,0.0
52997.0,STARLINK-4301,PAYLOAD,2023-02-16 11:38:41,15.11987649,0.0002243,53.2167,68.826,122.9843,237.1366,0.0027378,0.00047549,0.0,0 STARLINK-4301,1 52997U 22076M   23047.48520265  .00047549  00000-0  27378-2 0  9995,2 52997  53.2167  68.8260 0002243 122.9843 237.1366 15.11987649 34194,6908.276,95.239,531.691,528.591,0.0
52997.0,STARLINK-4301,PAYLOAD,2023-02-16 17:59:26,15.12016229,0.0002245,53.2168,67.6331,123.6403,236.4805,0.0028444,0.00049465,0.0,0 STARLINK-4301,1 52997U 22076M   23047.74960754  .00049465  00000-0  28444-2 0  9999,2 52997  53.2168  67.6331 0002245 123.6403 236.4805 15.12016229 34236,6908.189,95.237,531.605,528.503,0.0
52997.0,STARLINK-4301,PAYLOAD,2023-02-17 08:16:05,15.1206089,0.0002252,53.2166,64.9492,126.3823,233.7379,0.0021046,0.00036501,0.0,0 STARLINK-4301,1 52997U 22076M   23048.34450384  .00036501  00000-0  21046-2 0  9997,2 52997  53.2166  64.9492 0002252 126.3823 233.7379 15.12060890 34796,6908.053,95.234,531.474,528.362,0.0
52997.0,STARLINK-4301,PAYLOAD,2023-02-17 17:47:10,15.12088337,0.0002265,53.2163,63.1599,127.4663,232.6536,0.0018699,0.00032404,0.0,0 STARLINK-4301,1 52997U 22076M   23048.74109213  .00032404  00000-0  18699-2 0  9991,2 52997  53.2163  63.1599 0002265 127.4663 232.6536 15.12088337 34384,6907.969,95.233,531.399,528.27,0.0
52997.0,STARLINK-4301,PAYLOAD,2023-02-18 11:14:08,15.12127826,0.0002293,53.2159,59.8792,128.548,231.5719,0.0015646,0.00027074,0.0,0 STARLINK-4301,1 52997U 22076M   23049.46815518  .00027074  00000-0  15646-2 0  9999,2 52997  53.2159  59.8792 0002293 128.5480 231.5719 15.12127826 34968,6907.849,95.23,531.298,528.13,0.0
52997.0,STARLINK-4301,PAYLOAD,2023-02-19 09:26:36,15.12181036,0.0002334,53.2156,55.7036,130.6287,229.491,0.0016519,0.00028651,0.0,0 STARLINK-4301,1 52997U 22076M   23050.39347936  .00028651  00000-0  16519-2 0  9999,2 52997  53.2156  55.7036 0002334 130.6287 229.4910 15.12181036 34632,6907.687,95.227,531.164,527.94,0.0
52997.0,STARLINK-4301,PAYLOAD,2023-02-19 17:22:28,15.12196609,0.0002354,53.2154,54.2124,130.5795,229.5404,0.0014616,0.00025315,0.0,0 STARLINK-4301,1 52997U 22076M   23050.72394518  .00025315  00000-0  14616-2 0  9994,2 52997  53.2154  54.2124 0002354 130.5795 229.5404 15.12196609 35156,6907.64,95.226,531.131,527.879,0.0
52997.0,STARLINK-4301,PAYLOAD,2023-02-20 07:39:01,15.12231066,0.0002323,53.2153,51.5283,131.6232,228.4961,0.0015804,0.00027431,0.0,0 STARLINK-4301,1 52997U 22076M   23051.31877273  .00027431  00000-0  15804-2 0  9995,2 52997  53.2153  51.5283 0002323 131.6232 228.4961 15.12231066 34775,6907.535,95.224,531.004,527.795,0.0
52997.0,STARLINK-4301,PAYLOAD,2023-02-20 23:30:44,15.12269006,0.0002343,53.2159,48.5446,133.7334,226.3853,0.0016206,0.0002817,0.0,0 STARLINK-4301,1 52997U 22076M   23051.97967708  .00028170  00000-0  16206-2 0  9998,2 52997  53.2159  48.5446 0002343 133.7334 226.3853 15.12269006 35342,6907.419,95.221,530.903,527.666,0.0
